[Satellite]
VERSION=1.1
NAME=TABLETSAT-AURORA
NICKNAME=TABLETSAT-AURORA
TLE1=1 40017U 14033H   15055.42631914  .00003124  00000-0  32272-3 0  9998
TLE2=2 40017  97.9729 317.3839 0023392 232.5196 127.3847 14.90704418 37165
